[
    {
        "Altitude(m)": 554559.2696236057,
        "Argument of Periapsis(deg)": 0.026491964442854003,
        "Eccentricity": 0.0,
        "Inclination(deg)": 53.0,
        "Latitude(deg)": 26.71523417660629,
        "Longitude(deg)": 119.6574218870119,
        "Mean Anomaly(deg)": 145.82097147031033,
        "RAAN(deg)": 64.96057347411208,
        "Satellite Name": "Starlink Shell 1 292",
        "Satellite Number": 292,
        "Semi-Major Axis(m)": 6931778.249405717,
        "Time(s)": 760
    },
    {
        "Altitude(m)": 554495.7736748046,
        "Argument of Periapsis(deg)": 0.02684054292236524,
        "Eccentricity": 0.0,
        "Inclination(deg)": 53.0,
        "Latitude(deg)": 26.248474496512674,
        "Longitude(deg)": 120.08578359896951,
        "Mean Anomaly(deg)": 146.44780267386707,
        "RAAN(deg)": 64.9600547040346,
        "Satellite Name": "Starlink Shell 1 292",
        "Satellite Number": 292,
        "Semi-Major Axis(m)": 6931778.249405717,
        "Time(s)": 770
    },
    {
        "Altitude(m)": 554433.7624323557,
        "Argument of Periapsis(deg)": 0.027189121401876473,
        "Eccentricity": 0.0,
        "Inclination(deg)": 53.0,
        "Latitude(deg)": 25.780162085720235,
        "Longitude(deg)": 120.51040378991566,
        "Mean Anomaly(deg)": 147.07463387742376,
        "RAAN(deg)": 64.95953593395713,
        "Satellite Name": "Starlink Shell 1 292",
        "Satellite Number": 292,
        "Semi-Major Axis(m)": 6931778.249405717,
        "Time(s)": 780
    },
    {
        "Altitude(m)": 554373.2856083945,
        "Argument of Periapsis(deg)": 0.02753769988138771,
        "Eccentricity": 0.0,
        "Inclination(deg)": 53.0,
        "Latitude(deg)": 25.310340133915613,
        "Longitude(deg)": 120.93137667510804,
        "Mean Anomaly(deg)": 147.70146508098048,
        "RAAN(deg)": 64.95901716387965,
        "Satellite Name": "Starlink Shell 1 292",
        "Satellite Number": 292,
        "Semi-Major Axis(m)": 6931778.249405717,
        "Time(s)": 790
    },
    {
        "Altitude(m)": 554314.392322862,
        "Argument of Periapsis(deg)": 0.02788627836089895,
        "Eccentricity": 0.0,
        "Inclination(deg)": 53.0,
        "Latitude(deg)": 24.839050934872898,
        "Longitude(deg)": 121.348794672838,
        "Mean Anomaly(deg)": 148.3282962845372,
        "RAAN(deg)": 64.95849839380219,
        "Satellite Name": "Starlink Shell 1 292",
        "Satellite Number": 292,
        "Semi-Major Axis(m)": 6931778.249405717,
        "Time(s)": 800
    },
    {
        "Altitude(m)": 554257.1310770558,
        "Argument of Periapsis(deg)": 0.02823485684041019,
        "Eccentricity": 0.0,
        "Inclination(deg)": 53.0,
        "Latitude(deg)": 24.366335913729507,
        "Longitude(deg)": 121.76274892129221,
        "Mean Anomaly(deg)": 148.95512748809392,
        "RAAN(deg)": 64.95797962372471,
        "Satellite Name": "Starlink Shell 1 292",
        "Satellite Number": 292,
        "Semi-Major Axis(m)": 6931778.249405717,
        "Time(s)": 810
    },
    {
        "Altitude(m)": 554201.5497274335,
        "Argument of Periapsis(deg)": 0.028583435319921423,
        "Eccentricity": 0.0,
        "Inclination(deg)": 53.0,
        "Latitude(deg)": 23.892235653733877,
        "Longitude(deg)": 122.17332979713221,
        "Mean Anomaly(deg)": 149.58195869165067,
        "RAAN(deg)": 64.95746085364723,
        "Satellite Name": "Starlink Shell 1 292",
        "Satellite Number": 292,
        "Semi-Major Axis(m)": 6931778.249405717,
        "Time(s)": 820
    },
    {
        "Altitude(m)": 554147.695459728,
        "Argument of Periapsis(deg)": 0.028932013799432665,
        "Eccentricity": 0.0,
        "Inclination(deg)": 53.0,
        "Latitude(deg)": 23.416789922463444,
        "Longitude(deg)": 122.58062592276026,
        "Mean Anomaly(deg)": 150.20878989520736,
        "RAAN(deg)": 64.95694208356977,
        "Satellite Name": "Starlink Shell 1 292",
        "Satellite Number": 292,
        "Semi-Major Axis(m)": 6931778.249405717,
        "Time(s)": 830
    },
    {
        "Altitude(m)": 554095.6147633487,
        "Argument of Periapsis(deg)": 0.029280592278943897,
        "Eccentricity": 0.0,
        "Inclination(deg)": 53.0,
        "Latitude(deg)": 22.94003769750898,
        "Longitude(deg)": 122.98472468787361,
        "Mean Anomaly(deg)": 150.83562109876405,
        "RAAN(deg)": 64.95642331349228,
        "Satellite Name": "Starlink Shell 1 292",
        "Satellite Number": 292,
        "Semi-Major Axis(m)": 6931778.249405717,
        "Time(s)": 840
    },
    {
        "Altitude(m)": 554045.3534060646,
        "Argument of Periapsis(deg)": 0.029629170758455132,
        "Eccentricity": 0.0,
        "Inclination(deg)": 53.0,
        "Latitude(deg)": 22.462017191629645,
        "Longitude(deg)": 123.38571277229171,
        "Mean Anomaly(deg)": 151.46245230232074,
        "RAAN(deg)": 64.95590454341482,
        "Satellite Name": "Starlink Shell 1 292",
        "Satellite Number": 292,
        "Semi-Major Axis(m)": 6931778.249405717,
        "Time(s)": 850
    },
    {
        "Altitude(m)": 553996.9564090638,
        "Argument of Periapsis(deg)": 0.02997774923796637,
        "Eccentricity": 0.0,
        "Inclination(deg)": 53.0,
        "Latitude(deg)": 21.98276587738058,
        "Longitude(deg)": 123.7836749889618,
        "Mean Anomaly(deg)": 152.0892835058775,
        "RAAN(deg)": 64.95538577333734,
        "Satellite Name": "Starlink Shell 1 292",
        "Satellite Number": 292,
        "Semi-Major Axis(m)": 6931778.249405717,
        "Time(s)": 860
    },
    {
        "Altitude(m)": 553950.4680223053,
        "Argument of Periapsis(deg)": 0.030326327717477602,
        "Eccentricity": 0.0,
        "Inclination(deg)": 53.0,
        "Latitude(deg)": 21.50232051121515,
        "Longitude(deg)": 124.17869564945053,
        "Mean Anomaly(deg)": 152.71611470943418,
        "RAAN(deg)": 64.95486700325986,
        "Satellite Name": "Starlink Shell 1 292",
        "Satellite Number": 292,
        "Semi-Major Axis(m)": 6931778.249405717,
        "Time(s)": 870
    },
    {
        "Altitude(m)": 553905.9317002405,
        "Argument of Periapsis(deg)": 0.030674906196988847,
        "Eccentricity": 0.0,
        "Inclination(deg)": 53.0,
        "Latitude(deg)": 21.020717157070077,
        "Longitude(deg)": 124.5708574088993,
        "Mean Anomaly(deg)": 153.3429459129909,
        "RAAN(deg)": 64.9543482331824,
        "Satellite Name": "Starlink Shell 1 292",
        "Satellite Number": 292,
        "Semi-Major Axis(m)": 6931778.249405717,
        "Time(s)": 880
    },
    {
        "Altitude(m)": 553863.3900778872,
        "Argument of Periapsis(deg)": 0.031023484676500086,
        "Eccentricity": 0.0,
        "Inclination(deg)": 53.0,
        "Latitude(deg)": 20.53799120943713,
        "Longitude(deg)": 124.96024179277101,
        "Mean Anomaly(deg)": 153.96977711654765,
        "RAAN(deg)": 64.95382946310492,
        "Satellite Name": "Starlink Shell 1 292",
        "Satellite Number": 292,
        "Semi-Major Axis(m)": 6931778.249405717,
        "Time(s)": 890
    },
    {
        "Altitude(m)": 553822.8849473016,
        "Argument of Periapsis(deg)": 0.03137206315601132,
        "Eccentricity": 0.0,
        "Inclination(deg)": 53.0,
        "Latitude(deg)": 20.05417741592906,
        "Longitude(deg)": 125.34692972432401,
        "Mean Anomaly(deg)": 154.5966083201044,
        "RAAN(deg)": 64.95331069302745,
        "Satellite Name": "Starlink Shell 1 292",
        "Satellite Number": 292,
        "Semi-Major Axis(m)": 6931778.249405717,
        "Time(s)": 900
    },
    {
        "Altitude(m)": 553784.457234413,
        "Argument of Periapsis(deg)": 0.03172064163552255,
        "Eccentricity": 0.0,
        "Inclination(deg)": 53.0,
        "Latitude(deg)": 19.569309899349484,
        "Longitude(deg)": 125.73100053985276,
        "Mean Anomaly(deg)": 155.22343952366109,
        "RAAN(deg)": 64.95279192294998,
        "Satellite Name": "Starlink Shell 1 292",
        "Satellite Number": 292,
        "Semi-Major Axis(m)": 6931778.249405717,
        "Time(s)": 910
    },
    {
        "Altitude(m)": 553748.1469762672,
        "Argument of Periapsis(deg)": 0.0320692201150338,
        "Eccentricity": 0.0,
        "Inclination(deg)": 53.0,
        "Latitude(deg)": 19.08342217927322,
        "Longitude(deg)": 126.11253251736582,
        "Mean Anomaly(deg)": 155.85027072721778,
        "RAAN(deg)": 64.95227315287251,
        "Satellite Name": "Starlink Shell 1 292",
        "Satellite Number": 292,
        "Semi-Major Axis(m)": 6931778.249405717,
        "Time(s)": 920
    },
    {
        "Altitude(m)": 553713.9932987049,
        "Argument of Periapsis(deg)": 0.032417798594545036,
        "Eccentricity": 0.0,
        "Inclination(deg)": 53.0,
        "Latitude(deg)": 18.59654719314687,
        "Longitude(deg)": 126.49160340575456,
        "Mean Anomaly(deg)": 156.47710193077452,
        "RAAN(deg)": 64.95175438279503,
        "Satellite Name": "Starlink Shell 1 292",
        "Satellite Number": 292,
        "Semi-Major Axis(m)": 6931778.249405717,
        "Time(s)": 930
    },
    {
        "Altitude(m)": 553682.0343944316,
        "Argument of Periapsis(deg)": 0.03276637707405627,
        "Eccentricity": 0.0,
        "Inclination(deg)": 53.0,
        "Latitude(deg)": 18.10871731692209,
        "Longitude(deg)": 126.86828944151112,
        "Mean Anomaly(deg)": 157.10393313433121,
        "RAAN(deg)": 64.95123561271757,
        "Satellite Name": "Starlink Shell 1 292",
        "Satellite Number": 292,
        "Semi-Major Axis(m)": 6931778.249405717,
        "Time(s)": 940
    }
]